NORAD_CAT_ID,OBJECT_NAME,OBJECT_TYPE,EPOCH,MEAN_MOTION,ECCENTRICITY,INCLINATION,RA_OF_ASC_NODE,ARG_OF_PERICENTER,MEAN_ANOMALY,BSTAR,MEAN_MOTION_DOT,MEAN_MOTION_DDOT,TLE_LINE0,TLE_LINE1,TLE_LINE2,SEMIMAJOR_AXIS,PERIOD,APOGEE,PERIGEE,DECAYED
55953.0,STARLINK-5889,PAYLOAD,2024-02-27 11:42:52,14.98332833,0.0002893,70.0008,333.4792,269.4695,90.6132,-0.00011564,-1.473e-05,0.0,0 STARLINK-5889,1 55953U 23037AR  24058.48810935 -.00001473  00000-0 -11564-3 0  9996,2 55953  70.0008 333.4792 0002893 269.4695  90.6132 14.98332833 53449,6950.184,96.107,574.06,570.038,0.0
55953.0,STARLINK-5889,PAYLOAD,2024-02-27 19:43:33,14.98326006,0.0002903,70.0012,332.6372,271.1641,88.9185,5.0896e-06,-3.2e-07,0.0,0 STARLINK-5889,1 55953U 23037AR  24058.82191087 -.00000032  00000-0  50896-5 0  9996,2 55953  70.0012 332.6372 0002903 271.1641  88.9185 14.98326006 53838,6950.205,96.107,574.088,570.053,0.0
55953.0,STARLINK-5889,PAYLOAD,2024-02-27 22:55:49,14.98325467,0.0002929,70.0008,332.3009,270.9613,89.121,-1.0489e-05,-2.18e-06,0.0,0 STARLINK-5889,1 55953U 23037AR  24058.95543181 -.00000218  00000-0 -10489-4 0  9996,2 55953  70.0008 332.3009 0002929 270.9613  89.1210 14.98325467 53518,6950.207,96.107,574.108,570.036,0.0
55953.0,STARLINK-5889,PAYLOAD,2024-02-28 11:44:53,14.98332663,0.00029,70.0007,330.9544,274.0355,86.0473,-7.298e-05,-9.64e-06,0.0,0 STARLINK-5889,1 55953U 23037AR  24059.48950919 -.00000964  00000-0 -72980-4 0  9998,2 55953  70.0007 330.9544 0002900 274.0355  86.0473 14.98332663 53593,6950.185,96.107,574.065,570.034,0.0
55953.0,STARLINK-5889,PAYLOAD,2024-02-28 19:45:33,14.98327638,0.0002933,70.0004,330.1129,267.854,92.2284,3.1211e-05,2.79e-06,0.0,0 STARLINK-5889,1 55953U 23037AR  24059.82330973  .00000279  00000-0  31211-4 0  9997,2 55953  70.0004 330.1129 0002933 267.8540  92.2284 14.98327638 53981,6950.2,96.107,574.104,570.027,0.0
55953.0,STARLINK-5889,PAYLOAD,2024-02-28 22:57:50,14.98327977,0.0002934,70.0005,329.7762,267.8328,92.2495,3.3796e-05,3.1e-06,0.0,0 STARLINK-5889,1 55953U 23037AR  24059.95682960  .00000310  00000-0  33796-4 0  9993,2 55953  70.0005 329.7762 0002934 267.8328  92.2495 14.98327977 53669,6950.199,96.107,574.103,570.025,0.0
55953.0,STARLINK-5889,PAYLOAD,2024-02-29 11:46:54,14.98329975,0.0002902,70.0006,328.4296,267.963,92.1197,2.6605e-05,2.24e-06,0.0,0 STARLINK-5889,1 55953U 23037AR  24060.49090846  .00000224  00000-0  26605-4 0  9995,2 55953  70.0006 328.4296 0002902 267.9630  92.1197 14.98329975 53747,6950.193,96.107,574.075,570.041,0.0
55953.0,STARLINK-5889,PAYLOAD,2024-02-29 21:23:42,14.98328672,0.0002936,70.0003,327.4198,268.1234,91.9588,5.7394e-05,5.92e-06,0.0,0 STARLINK-5889,1 55953U 23037AR  24060.89146830  .00000592  00000-0  57394-4 0  9991,2 55953  70.0003 327.4198 0002936 268.1234  91.9588 14.98328672 54143,6950.197,96.107,574.103,570.021,0.0
55953.0,STARLINK-5889,PAYLOAD,2024-03-01 03:48:14,14.98334426,0.0002972,70.0003,326.7471,269.4611,90.6207,4.1593e-05,4.03e-06,0.0,0 STARLINK-5889,1 55953U 23037AR  24061.15850474  .00000403  00000-0  41593-4 0  9992,2 55953  70.0003 326.7471 0002972 269.4611  90.6207 14.98334426 53846,6950.179,96.107,574.11,569.979,0.0
55953.0,STARLINK-5889,PAYLOAD,2024-03-01 21:25:43,14.98332215,0.0002837,70.0007,324.8958,271.3466,88.7368,2.1423e-06,-6.7e-07,0.0,0 STARLINK-5889,1 55953U 23037AR  24061.89286630 -.00000067  00000-0  21423-5 0  9998,2 55953  70.0007 324.8958 0002837 271.3466  88.7368 14.98332215 54299,6950.186,96.107,574.023,570.079,0.0
55953.0,STARLINK-5889,PAYLOAD,2024-03-02 03:50:15,14.98336452,0.0002784,70.0007,324.2224,272.666,87.418,5.2771e-05,5.37e-06,0.0,0 STARLINK-5889,1 55953U 23037AR  24062.15990149  .00000537  00000-0  52771-4 0  9995,2 55953  70.0007 324.2224 0002784 272.6660  87.4180 14.98336452 53991,6950.173,96.107,573.973,570.103,0.0
55953.0,STARLINK-5889,PAYLOAD,2024-03-02 21:27:44,14.98329415,0.000266,70.0009,322.3713,264.1851,95.9004,-3.2414e-05,-4.8e-06,0.0,0 STARLINK-5889,1 55953U 23037AR  24062.89426647 -.00000480  00000-0 -32414-4 0  9994,2 55953  70.0009 322.3713 0002660 264.1851  95.9004 14.98329415 54100,6950.195,96.107,573.908,570.211,0.0
55953.0,STARLINK-5889,PAYLOAD,2024-03-03 02:16:08,14.98328825,0.0002591,70.001,321.8673,256.5543,103.5327,-4.1374e-05,-5.87e-06,0.0,0 STARLINK-5889,1 55953U 23037AR  24063.09454677 -.00000587  00000-0 -41374-4 0  9994,2 55953  70.0010 321.8673 0002591 256.5543 103.5327 14.98328825 54475,6950.197,96.107,573.862,570.261,0.0
55953.0,STARLINK-5889,PAYLOAD,2024-03-03 21:29:45,14.98332638,0.0002607,70.0012,319.8481,248.0462,112.042,1.5539e-05,9.2e-07,0.0,0 STARLINK-5889,1 55953U 23037AR  24063.89566197  .00000092  00000-0  15539-4 0  9996,2 55953  70.0012 319.8481 0002607 248.0462 112.0420 14.98332638 54257,6950.185,96.107,573.862,570.238,0.0
55953.0,STARLINK-5889,PAYLOAD,2024-03-04 02:18:09,14.98334197,0.0002584,70.0012,319.343,248.7856,111.3028,3.2335e-05,2.93e-06,0.0,0 STARLINK-5889,1 55953U 23037AR  24064.09594007  .00000293  00000-0  32335-4 0  9996,2 55953  70.0012 319.3430 0002584 248.7856 111.3028 14.98334197 54623,6950.18,96.107,573.841,570.249,0.0
55953.0,STARLINK-5889,PAYLOAD,2024-03-04 23:07:53,14.98330673,0.0002788,70.0002,317.1525,261.7469,98.3374,0.00011999,1.339e-05,0.0,0 STARLINK-5889,1 55953U 23037AR  24064.96381727  .00001339  00000-0  11999-3 0  9999,2 55953  70.0002 317.1525 0002788 261.7469  98.3374 14.98330673 54414,6950.191,96.107,573.994,570.118,0.0
55953.0,STARLINK-5889,PAYLOAD,2024-03-05 02:20:09,14.98334808,0.0002738,70.0002,316.8164,261.7176,98.3672,9.6592e-05,1.06e-05,0.0,0 STARLINK-5889,1 55953U 23037AR  24065.09733502  .00001060  00000-0  96592-4 0  9990,2 55953  70.0002 316.8164 0002738 261.7176  98.3672 14.98334808 54773,6950.178,96.107,573.946,570.14,0.0
55953.0,STARLINK-5889,PAYLOAD,2024-03-05 21:33:47,14.98327127,0.0002744,69.9997,314.7938,260.84,99.2448,-0.00012902,-1.632e-05,0.0,0 STARLINK-5889,1 55953U 23037AR  24065.89846595 -.00001632  00000-0 -12902-3 0  9994,2 55953  69.9997 314.7938 0002744 260.8400  99.2448 14.98327127 54896,6950.202,96.107,573.974,570.16,0.0
55953.0,STARLINK-5889,PAYLOAD,2024-03-06 02:22:11,14.98325989,0.0002813,69.9998,314.2893,263.2054,96.8785,-0.00011619,-1.479e-05,0.0,0 STARLINK-5889,1 55953U 23037AR  24066.09874673 -.00001479  00000-0 -11619-3 0  9998,2 55953  69.9998 314.2893 0002813 263.2054  96.8785 14.98325989 54588,6950.205,96.107,574.025,570.115,0.0
55953.0,STARLINK-5889,PAYLOAD,2024-03-07 02:24:12,14.98321211,0.0002852,69.9996,311.7648,265.3348,94.7485,0.00010568,1.168e-05,0.0,0 STARLINK-5889,1 55953U 23037AR  24067.10014540  .00001168  00000-0  10568-3 0  9995,2 55953  69.9996 311.7648 0002852 265.3348  94.7485 14.98321211 55071,6950.22,96.108,574.067,570.103,0.0
55953.0,STARLINK-5889,PAYLOAD,2024-03-08 02:26:13,14.98329199,0.0002904,69.9996,309.2411,269.7926,90.29,0.00011678,1.301e-05,0.0,0 STARLINK-5889,1 55953U 23037AR  24068.10154134  .00001301  00000-0  11678-3 0  9992,2 55953  69.9996 309.2411 0002904 269.7926  90.2900 14.98329199 55222,6950.195,96.107,574.079,570.042,0.0
55953.0,STARLINK-5889,PAYLOAD,2024-03-09 08:52:46,14.98330822,0.0002802,69.9996,306.0425,270.5764,89.5074,5.6302e-05,5.79e-06,0.0,0 STARLINK-5889,1 55953U 23037AR  24069.36998186  .00000579  00000-0  56302-4 0  9994,2 55953  69.9996 306.0425 0002802 270.5764  89.5074 14.98330822 55418,6950.19,96.107,574.003,570.108,0.0
55953.0,STARLINK-5889,PAYLOAD,2024-03-09 21:41:50,14.98331197,0.0002762,69.9998,304.696,264.7207,95.3637,1.3033e-05,6.3e-07,0.0,0 STARLINK-5889,1 55953U 23037AR  24069.90406111  .00000063  00000-0  13033-4 0  9998,2 55953  69.9998 304.6960 0002762 264.7207  95.3637 14.98331197 55157,6950.189,96.107,573.974,570.135,0.0
55953.0,STARLINK-5889,PAYLOAD,2024-03-10 00:54:06,14.98329036,0.0002736,69.9994,304.3594,265.4954,94.5892,9.0462e-05,9.87e-06,0.0,0 STARLINK-5889,1 55953U 23037AR  24070.03758042  .00000987  00000-0  90462-4 0  9993,2 55953  69.9994 304.3594 0002736 265.4954  94.5892 14.98329036 55176,6950.196,96.107,573.962,570.159,0.0
55953.0,STARLINK-5889,PAYLOAD,2024-03-10 21:43:52,14.98370528,0.0002614,70.0004,302.1711,271.7348,88.3511,-0.0007006,-8.451e-05,0.0,0 STARLINK-5889,1 55953U 23037AR  24070.90546438 -.00008451  00000-0 -70060-3 0  9990,2 55953  70.0004 302.1711 0002614 271.7348  88.3511 14.98370528 55643,6950.068,96.104,573.749,570.116,0.0
55953.0,STARLINK-5889,PAYLOAD,2024-03-11 00:56:08,14.98326453,0.0002773,69.9994,301.8342,269.6869,90.3973,-6.2041e-05,-8.33e-06,0.0,0 STARLINK-5889,1 55953U 23037AR  24071.03898631 -.00000833  00000-0 -62041-4 0  9997,2 55953  69.9994 301.8342 0002773 269.6869  90.3973 14.98326453 55669,6950.204,96.107,573.996,570.142,0.0
55953.0,STARLINK-5889,PAYLOAD,2024-03-11 08:56:48,14.98329876,0.0002911,69.9992,300.9925,270.2267,89.8558,-2.6638e-05,-4.11e-06,0.0,0 STARLINK-5889,1 55953U 23037AR  24071.37278316 -.00000411  00000-0 -26638-4 0  9990,2 55953  69.9992 300.9925 0002911 270.2267  89.8558 14.98329876 55370,6950.193,96.107,574.081,570.035,0.0
55953.0,STARLINK-5889,PAYLOAD,2024-03-11 21:45:52,14.98343973,0.000278,69.9991,299.6457,266.5654,93.5187,-0.0001417,-1.784e-05,0.0,0 STARLINK-5889,1 55953U 23037AR  24071.90685644 -.00001784  00000-0 -14170-3 0  9996,2 55953  69.9991 299.6457 0002780 266.5654  93.5187 14.98343973 55795,6950.15,96.106,573.947,570.083,0.0
55953.0,STARLINK-5889,PAYLOAD,2024-03-12 00:58:09,14.98292508,0.0002649,69.999,299.3091,272.7138,87.3718,0.00074918,8.849e-05,0.0,0 STARLINK-5889,1 55953U 23037AR  24072.04038820  .00008849  00000-0  74918-3 0  9993,2 55953  69.9990 299.3091 0002649 272.7138  87.3718 14.98292508 55816,6950.309,96.109,574.015,570.333,0.0
55953.0,STARLINK-5889,PAYLOAD,2024-03-12 08:58:49,14.9832787,0.0002863,69.9991,298.4672,271.977,88.1061,-1.6516e-05,-2.9e-06,0.0,0 STARLINK-5889,1 55953U 23037AR  24072.37418288 -.00000290  00000-0 -16516-4 0  9994,2 55953  69.9991 298.4672 0002863 271.9770  88.1061 14.98327870 55869,6950.199,96.107,574.054,570.075,0.0
